{
    "links": {
        "self": "http://www.neowsapp.com/rest/v1/neo/54075590?api_key=iIulBulltgU6a56xZRHN4H3l9WmuAYTsLGpBGhQ2"
    },
    "id": "54075590",
    "neo_reference_id": "54075590",
    "name": "(2020 UU2)",
    "designation": "2020 UU2",
    "nasa_jpl_url": "http://ssd.jpl.nasa.gov/sbdb.cgi?sstr=54075590",
    "absolute_magnitude_h": 24.309,
    "estimated_diameter": {
        "kilometers": {
            "estimated_diameter_min": 0.0365388586,
            "estimated_diameter_max": 0.0817033716
        },
        "meters": {
            "estimated_diameter_min": 36.5388585881,
            "estimated_diameter_max": 81.7033716233
        },
        "miles": {
            "estimated_diameter_min": 0.0227041871,
            "estimated_diameter_max": 0.0507681057
        },
        "feet": {
            "estimated_diameter_min": 119.8781488103,
            "estimated_diameter_max": 268.0556897567
        }
    },
    "is_potentially_hazardous_asteroid": false,
    "close_approach_data": [
        {
            "close_approach_date": "2020-10-19",
            "close_approach_date_full": "2020-Oct-19 12:54",
            "epoch_date_close_approach": 1603112040000,
            "relative_velocity": {
                "kilometers_per_second": "12.6466394494",
                "kilometers_per_hour": "45527.9020179322",
                "miles_per_hour": "28289.2677844201"
            },
            "miss_distance": {
                "astronomical": "0.0590573931",
                "lunar": "22.9733259159",
                "kilometers": "8834860.215512697",
                "miles": "5489727.5758693386"
            },
            "orbiting_body": "Earth"
        }
    ],
    "orbital_data": {
        "orbit_id": "3",
        "orbit_determination_date": "2020-10-23 08:23:15",
        "first_observation_date": "2020-10-15",
        "last_observation_date": "2020-10-22",
        "data_arc_in_days": 7,
        "observations_used": 41,
        "orbit_uncertainty": "8",
        "minimum_orbit_intersection": ".0554844",
        "jupiter_tisserand_invariant": "4.638",
        "epoch_osculation": "2459143.5",
        "eccentricity": ".2506921429931854",
        "semi_major_axis": "1.401598325606664",
        "inclination": "22.87977158394763",
        "ascending_node_longitude": "27.08079432326549",
        "orbital_period": "606.0853434290593",
        "perihelion_distance": "1.050228637744669",
        "perihelion_argument": "5.485531284140514",
        "aphelion_distance": "1.752968013468659",
        "perihelion_time": "2459146.962506168773",
        "mean_anomaly": "357.9433552811129",
        "mean_motion": ".5939757558947424",
        "equinox": "J2000",
        "orbit_class": {
            "orbit_class_type": "AMO",
            "orbit_class_description": "Near-Earth asteroid orbits similar to that of 1221 Amor",
            "orbit_class_range": "1.017 AU < q (perihelion) < 1.3 AU"
        }
    },
    "is_sentry_object": false
}